MALLIGYONG-1            
1 58400U 23179A   24130.19916756  .00007570  00000+0  33067-3 0  9993
2 58400  97.4088  17.6405 0010541  48.8307 311.3837 15.22344853 25795
